[{"OBJECT_NAME":"ICEYE-X7","OBJECT_ID":"2020-068L","EPOCH":"2026-03-09T22:52:28.702272","MEAN_MOTION":15.29152508,"ECCENTRICITY":0.00068409,"INCLINATION":97.7412,"RA_OF_ASC_NODE":31.2076,"ARG_OF_PERICENTER":332.3045,"MEAN_ANOMALY":27.7829,"EPHEMERIS_TYPE":0,"CLASSIFICATION_TYPE":"U","NORAD_CAT_ID":46496,"ELEMENT_SET_NO":999,"REV_AT_EPOCH":29961,"BSTAR":0.0005654802,"MEAN_MOTION_DOT":0.00015947,"MEAN_MOTION_DDOT":0},{"OBJECT_NAME":"STARLINK-33784","OBJECT_ID":"2025-069W","EPOCH":"2026-03-09T10:41:36.140352","MEAN_MOTION":15.30217807,"ECCENTRICITY":7.921e-5,"INCLINATION":53.1582,"RA_OF_ASC_NODE":143.8705,"ARG_OF_PERICENTER":130.5046,"MEAN_ANOMALY":229.6024,"EPHEMERIS_TYPE":0,"CLASSIFICATION_TYPE":"U","NORAD_CAT_ID":63453,"ELEMENT_SET_NO":999,"REV_AT_EPOCH":5336,"BSTAR":0.0011463826,"MEAN_MOTION_DOT":0.00033766,"MEAN_MOTION_DDOT":0}]
